[{"OBJECT_NAME":"STARLINK-2408","OBJECT_ID":"2021-018AN","EPOCH":"2026-03-09T17:35:33.480960","MEAN_MOTION":15.06395389,"ECCENTRICITY":0.00014347,"INCLINATION":53.0554,"RA_OF_ASC_NODE":251.4081,"ARG_OF_PERICENTER":109.3235,"MEAN_ANOMALY":250.791,"EPHEMERIS_TYPE":0,"CLASSIFICATION_TYPE":"U","NORAD_CAT_ID":47823,"ELEMENT_SET_NO":999,"REV_AT_EPOCH":27660,"BSTAR":-0.00010803348,"MEAN_MOTION_DOT":-1.89e-5,"MEAN_MOTION_DDOT":0},{"OBJECT_NAME":"FENGYUN 1C DEB","OBJECT_ID":"1999-025FN","EPOCH":"2026-03-09T22:18:23.675616","MEAN_MOTION":14.79879453,"ECCENTRICITY":0.01939452,"INCLINATION":97.9352,"RA_OF_ASC_NODE":118.672,"ARG_OF_PERICENTER":81.3681,"MEAN_ANOMALY":358.3473,"EPHEMERIS_TYPE":0,"CLASSIFICATION_TYPE":"U","NORAD_CAT_ID":29868,"ELEMENT_SET_NO":999,"REV_AT_EPOCH":1584,"BSTAR":0.0007539816,"MEAN_MOTION_DOT":7.789e-5,"MEAN_MOTION_DDOT":0}]
